COSMOS 2477 [GLONASS-M] 
1 37868U 11064B   25334.27535907 -.00000004  00000+0  00000+0 0  9992
2 37868  65.1621  79.6706 0020956 233.7234 152.7020  2.13102705109521
COSMOS 2475 [GLONASS-M] 
1 37869U 11064C   25334.31505213 -.00000004  00000+0  00000+0 0  9995
2 37869  65.1691  79.6892 0025982 248.1340 124.7491  2.13101381109538
COSMOS 2485 [GLONASS-M] 
1 39155U 13019A   25328.31313637  .00000012  00000+0  00000+0 0  9995
2 39155  65.3036  80.4871 0024274 228.0776 131.7167  2.13103115 97916
COSMOS 2492 [GLONASS-M] 
1 39620U 14012A   25334.37212025 -.00000021  00000+0  00000+0 0  9999
2 39620  65.4146 320.6904 0014151 310.6761  49.2159  2.13103106 91005
COSMOS 2500 [GLONASS-M] 
1 40001U 14032A   25334.54448623 -.00000022  00000+0  00000+0 0  9991
2 40001  65.3503 320.4477 0008367 218.9858 140.9682  2.13105909 89222
COSMOS 2501 [GLONASS-K] 
1 40315U 14075A   25333.86555699  .00000091  00000+0  00000+0 0  9997
2 40315  63.6137 197.2711 0020176 204.8562 155.1342  2.13101314 85608
COSMOS 2514 [GLONASS-M] 
1 41330U 16008A   25334.31877862 -.00000021  00000+0  00000+0 0  9997
2 41330  65.1409 319.8297 0012544 219.8205 140.1015  2.13102507 76387
COSMOS 2522 [GLONASS-M] 
1 42939U 17055A   25334.62646500  .00000096  00000+0  00000+0 0  9994
2 42939  64.0757 198.6417 0006581 226.4884 133.5472  2.13101882 63749
