{
  "type": "FeatureCollection",
  "features": [
    {
      "type": "Feature",
      "properties": {
        "norad_id": 37868,
        "name": "COSMOS 2477 (745)",
        "group": "glo-ops",
        "lat": NaN,
        "lon": NaN,
        "alt_km": NaN,
        "timestamp": "2025-12-01T03:08:34.176238+00:00",
        "meta": {
          "OBJECT_NAME": "COSMOS 2477 (745)",
          "OBJECT_ID": "2011-064B",
          "EPOCH": "2025-11-30T06:36:31.023648",
          "MEAN_MOTION": 2.13102705,
          "ECCENTRICITY": 0.00209561,
          "INCLINATION": 65.1621,
          "RA_OF_ASC_NODE": 79.6706,
          "ARG_OF_PERICENTER": 233.7234,
          "MEAN_ANOMALY": 152.702,
          "EPHEMERIS_TYPE": 0,
          "CLASSIFICATION_TYPE": "U",
          "NORAD_CAT_ID": 37868,
          "ELEMENT_SET_NO": 999,
          "REV_AT_EPOCH": 10952,
          "BSTAR": 0,
          "MEAN_MOTION_DOT": -4e-08,
          "MEAN_MOTION_DDOT": 0
        }
      },
      "geometry": {
        "type": "Point",
        "coordinates": [
          NaN,
          NaN
        ]
      }
    },
    {
      "type": "Feature",
      "properties": {
        "norad_id": 37869,
        "name": "COSMOS 2475 (743)",
        "group": "glo-ops",
        "lat": NaN,
        "lon": NaN,
        "alt_km": NaN,
        "timestamp": "2025-12-01T03:08:34.176244+00:00",
        "meta": {
          "OBJECT_NAME": "COSMOS 2475 (743)",
          "OBJECT_ID": "2011-064C",
          "EPOCH": "2025-11-30T07:33:40.504032",
          "MEAN_MOTION": 2.13101381,
          "ECCENTRICITY": 0.00259829,
          "INCLINATION": 65.1691,
          "RA_OF_ASC_NODE": 79.6892,
          "ARG_OF_PERICENTER": 248.134,
          "MEAN_ANOMALY": 124.7491,
          "EPHEMERIS_TYPE": 0,
          "CLASSIFICATION_TYPE": "U",
          "NORAD_CAT_ID": 37869,
          "ELEMENT_SET_NO": 999,
          "REV_AT_EPOCH": 10953,
          "BSTAR": 0,
          "MEAN_MOTION_DOT": -4e-08,
          "MEAN_MOTION_DDOT": 0
        }
      },
      "geometry": {
        "type": "Point",
        "coordinates": [
          NaN,
          NaN
        ]
      }
    },
    {
      "type": "Feature",
      "properties": {
        "norad_id": 39155,
        "name": "COSMOS 2485 (747)",
        "group": "glo-ops",
        "lat": NaN,
        "lon": NaN,
        "alt_km": NaN,
        "timestamp": "2025-12-01T03:08:34.176264+00:00",
        "meta": {
          "OBJECT_NAME": "COSMOS 2485 (747)",
          "OBJECT_ID": "2013-019A",
          "EPOCH": "2025-11-24T07:30:54.982368",
          "MEAN_MOTION": 2.13103115,
          "ECCENTRICITY": 0.0024274,
          "INCLINATION": 65.3036,
          "RA_OF_ASC_NODE": 80.4871,
          "ARG_OF_PERICENTER": 228.0776,
          "MEAN_ANOMALY": 131.7167,
          "EPHEMERIS_TYPE": 0,
          "CLASSIFICATION_TYPE": "U",
          "NORAD_CAT_ID": 39155,
          "ELEMENT_SET_NO": 999,
          "REV_AT_EPOCH": 9791,
          "BSTAR": 0,
          "MEAN_MOTION_DOT": 1.2e-07,
          "MEAN_MOTION_DDOT": 0
        }
      },
      "geometry": {
        "type": "Point",
        "coordinates": [
          NaN,
          NaN
        ]
      }
    },
    {
      "type": "Feature",
      "properties": {
        "norad_id": 39620,
        "name": "COSMOS 2492 (754)",
        "group": "glo-ops",
        "lat": NaN,
        "lon": NaN,
        "alt_km": NaN,
        "timestamp": "2025-12-01T03:08:34.176280+00:00",
        "meta": {
          "OBJECT_NAME": "COSMOS 2492 (754)",
          "OBJECT_ID": "2014-012A",
          "EPOCH": "2025-11-30T08:55:51.189600",
          "MEAN_MOTION": 2.13103106,
          "ECCENTRICITY": 0.00141517,
          "INCLINATION": 65.4146,
          "RA_OF_ASC_NODE": 320.6904,
          "ARG_OF_PERICENTER": 310.6761,
          "MEAN_ANOMALY": 49.2159,
          "EPHEMERIS_TYPE": 0,
          "CLASSIFICATION_TYPE": "U",
          "NORAD_CAT_ID": 39620,
          "ELEMENT_SET_NO": 999,
          "REV_AT_EPOCH": 9100,
          "BSTAR": 0,
          "MEAN_MOTION_DOT": -2.1e-07,
          "MEAN_MOTION_DDOT": 0
        }
      },
      "geometry": {
        "type": "Point",
        "coordinates": [
          NaN,
          NaN
        ]
      }
    },
    {
      "type": "Feature",
      "properties": {
        "norad_id": 40001,
        "name": "COSMOS 2500 (755)",
        "group": "glo-ops",
        "lat": NaN,
        "lon": NaN,
        "alt_km": NaN,
        "timestamp": "2025-12-01T03:08:34.176288+00:00",
        "meta": {
          "OBJECT_NAME": "COSMOS 2500 (755)",
          "OBJECT_ID": "2014-032A",
          "EPOCH": "2025-11-30T13:04:03.610272",
          "MEAN_MOTION": 2.13105909,
          "ECCENTRICITY": 0.0008367,
          "INCLINATION": 65.3503,
          "RA_OF_ASC_NODE": 320.4477,
          "ARG_OF_PERICENTER": 218.9858,
          "MEAN_ANOMALY": 140.9682,
          "EPHEMERIS_TYPE": 0,
          "CLASSIFICATION_TYPE": "U",
          "NORAD_CAT_ID": 40001,
          "ELEMENT_SET_NO": 999,
          "REV_AT_EPOCH": 8922,
          "BSTAR": 0,
          "MEAN_MOTION_DOT": -2.2e-07,
          "MEAN_MOTION_DDOT": 0
        }
      },
      "geometry": {
        "type": "Point",
        "coordinates": [
          NaN,
          NaN
        ]
      }
    },
    {
      "type": "Feature",
      "properties": {
        "norad_id": 40315,
        "name": "COSMOS 2501 (702K)",
        "group": "glo-ops",
        "lat": NaN,
        "lon": NaN,
        "alt_km": NaN,
        "timestamp": "2025-12-01T03:08:34.176303+00:00",
        "meta": {
          "OBJECT_NAME": "COSMOS 2501 (702K)",
          "OBJECT_ID": "2014-075A",
          "EPOCH": "2025-11-29T20:46:24.123936",
          "MEAN_MOTION": 2.13101314,
          "ECCENTRICITY": 0.00201767,
          "INCLINATION": 63.6137,
          "RA_OF_ASC_NODE": 197.2711,
          "ARG_OF_PERICENTER": 204.8562,
          "MEAN_ANOMALY": 155.1342,
          "EPHEMERIS_TYPE": 0,
          "CLASSIFICATION_TYPE": "U",
          "NORAD_CAT_ID": 40315,
          "ELEMENT_SET_NO": 999,
          "REV_AT_EPOCH": 8560,
          "BSTAR": 0,
          "MEAN_MOTION_DOT": 9.1e-07,
          "MEAN_MOTION_DDOT": 0
        }
      },
      "geometry": {
        "type": "Point",
        "coordinates": [
          NaN,
          NaN
        ]
      }
    },
    {
      "type": "Feature",
      "properties": {
        "norad_id": 41330,
        "name": "COSMOS 2514 (751)",
        "group": "glo-ops",
        "lat": NaN,
        "lon": NaN,
        "alt_km": NaN,
        "timestamp": "2025-12-01T03:08:34.176327+00:00",
        "meta": {
          "OBJECT_NAME": "COSMOS 2514 (751)",
          "OBJECT_ID": "2016-008A",
          "EPOCH": "2025-11-30T07:39:02.472768",
          "MEAN_MOTION": 2.13102507,
          "ECCENTRICITY": 0.0012544,
          "INCLINATION": 65.1409,
          "RA_OF_ASC_NODE": 319.8297,
          "ARG_OF_PERICENTER": 219.8205,
          "MEAN_ANOMALY": 140.1015,
          "EPHEMERIS_TYPE": 0,
          "CLASSIFICATION_TYPE": "U",
          "NORAD_CAT_ID": 41330,
          "ELEMENT_SET_NO": 999,
          "REV_AT_EPOCH": 7638,
          "BSTAR": 0,
          "MEAN_MOTION_DOT": -2.1e-07,
          "MEAN_MOTION_DDOT": 0
        }
      },
      "geometry": {
        "type": "Point",
        "coordinates": [
          NaN,
          NaN
        ]
      }
    },
    {
      "type": "Feature",
      "properties": {
        "norad_id": 42939,
        "name": "COSMOS 2522 (752)",
        "group": "glo-ops",
        "lat": NaN,
        "lon": NaN,
        "alt_km": NaN,
        "timestamp": "2025-12-01T03:08:34.176354+00:00",
        "meta": {
          "OBJECT_NAME": "COSMOS 2522 (752)",
          "OBJECT_ID": "2017-055A",
          "EPOCH": "2025-11-30T15:02:06.576000",
          "MEAN_MOTION": 2.13101882,
          "ECCENTRICITY": 0.0006581,
          "INCLINATION": 64.0757,
          "RA_OF_ASC_NODE": 198.6417,
          "ARG_OF_PERICENTER": 226.4884,
          "MEAN_ANOMALY": 133.5472,
          "EPHEMERIS_TYPE": 0,
          "CLASSIFICATION_TYPE": "U",
          "NORAD_CAT_ID": 42939,
          "ELEMENT_SET_NO": 999,
          "REV_AT_EPOCH": 6374,
          "BSTAR": 0,
          "MEAN_MOTION_DOT": 9.6e-07,
          "MEAN_MOTION_DDOT": 0
        }
      },
      "geometry": {
        "type": "Point",
        "coordinates": [
          NaN,
          NaN
        ]
      }
    }
  ]
}